{"type": "FeatureCollection", "features": [ {"type": "Feature", "properties": {"norad_id": 30317, "name": "FENGYUN 1C DEB", "group": "fengyun-1c-debris", "lat": -41.78868504630744, "lon": 149.62600077841165, "alt_km": 874.4029739863126, "timestamp": "2025-12-02T19:35:50.831344+00:00", "meta": {"OBJECT_NAME": "FENGYUN 1C DEB", "OBJECT_ID": "1999-025AAE", "EPOCH": "2025-12-02T11:42:52.374816", "MEAN_MOTION": 14.06938993, "ECCENTRICITY": 0.0024323, "INCLINATION": 98.7864, "RA_OF_ASC_NODE": 337.2523, "ARG_OF_PERICENTER": 306.8711, "MEAN_ANOMALY": 53.0229, "EPHEMERIS_TYPE": 0, "CLASSIFICATION_TYPE": "U", "NORAD_CAT_ID": 30317, "ELEMENT_SET_NO": 999, "REV_AT_EPOCH": 96869, "BSTAR": 0.0002171, "MEAN_MOTION_DOT": 3.2e-06, "MEAN_MOTION_DDOT": 0}, "tle": {"line1": "1 30317U 99025AAE 25336.48810619  .00000320  00000+0  21710-3 0  9993", "line2": "2 30317  98.7864 337.2523 0024323 306.8711  53.0229 14.06938993968694"}}, "geometry": {"type": "Point", "coordinates": [149.62600077841165, -41.78868504630744]}}, {"type": "Feature", "properties": {"norad_id": 30320, "name": "FENGYUN 1C DEB", "group": "fengyun-1c-debris", "lat": -58.45325414536709, "lon": -159.19281875451395, "alt_km": 897.3362122536291, "timestamp": "2025-12-02T19:35:50.831355+00:00", "meta": {"OBJECT_NAME": "FENGYUN 1C DEB", "OBJECT_ID": "1999-025AAH", "EPOCH": "2025-12-02T03:08:01.150368", "MEAN_MOTION": 13.98550047, "ECCENTRICITY": 0.00854342, "INCLINATION": 99.1902, "RA_OF_ASC_NODE": 35.4095, "ARG_OF_PERICENTER": 324.099, "MEAN_ANOMALY": 64.5595, "EPHEMERIS_TYPE": 0, "CLASSIFICATION_TYPE": "U", "NORAD_CAT_ID": 30320, "ELEMENT_SET_NO": 999, "REV_AT_EPOCH": 96259, "BSTAR": 9.5515131e-05, "MEAN_MOTION_DOT": 9.5e-07, "MEAN_MOTION_DDOT": 0}, "tle": {"line1": "1 30320U 99025AAH 25336.13056887  .00000095  00000+0  95515-4 0  9992", "line2": "2 30320  99.1902  35.4095 0085434 324.0990  64.5595 13.98550047962594"}}, "geometry": {"type": "Point", "coordinates": [-159.19281875451395, -58.45325414536709]}}, {"type": "Feature", "properties": {"norad_id": 30321, "name": "FENGYUN 1C DEB", "group": "fengyun-1c-debris", "lat": 9.084710777977849, "lon": -25.27279468311244, "alt_km": 848.3262336591233, "timestamp": "2025-12-02T19:35:50.831365+00:00", "meta": {"OBJECT_NAME": "FENGYUN 1C DEB", "OBJECT_ID": "1999-025AAJ", "EPOCH": "2025-12-02T11:49:50.608704", "MEAN_MOTION": 14.16619076, "ECCENTRICITY": 0.0059812, "INCLINATION": 98.6561, "RA_OF_ASC_NODE": 335.8082, "ARG_OF_PERICENTER": 266.6878, "MEAN_ANOMALY": 252.5034, "EPHEMERIS_TYPE": 0, "CLASSIFICATION_TYPE": "U", "NORAD_CAT_ID": 30321, "ELEMENT_SET_NO": 999, "REV_AT_EPOCH": 97398, "BSTAR": 0.00043868, "MEAN_MOTION_DOT": 8.47e-06, "MEAN_MOTION_DDOT": 0}, "tle": {"line1": "1 30321U 99025AAJ 25336.49294686  .00000847  00000+0  43868-3 0  9991", "line2": "2 30321  98.6561 335.8082 0059812 266.6878 252.5034 14.16619076973981"}}, "geometry": {"type": "Point", "coordinates": [-25.27279468311244, 9.084710777977849]}}, {"type": "Feature", "properties": {"norad_id": 30322, "name": "FENGYUN 1C DEB", "group": "fengyun-1c-debris", "lat": 38.054920854292625, "lon": -171.42464111500183, "alt_km": 911.4076723955668, "timestamp": "2025-12-02T19:35:50.831376+00:00", "meta": {"OBJECT_NAME": "FENGYUN 1C DEB", "OBJECT_ID": "1999-025AAK", "EPOCH": "2025-12-02T02:20:06.505728", "MEAN_MOTION": 14.06015507, "ECCENTRICITY": 0.01273862, "INCLINATION": 98.3991, "RA_OF_ASC_NODE": 194.5496, "ARG_OF_PERICENTER": 283.5054, "MEAN_ANOMALY": 75.1949, "EPHEMERIS_TYPE": 0, "CLASSIFICATION_TYPE": "U", "NORAD_CAT_ID": 30322, "ELEMENT_SET_NO": 999, "REV_AT_EPOCH": 96050, "BSTAR": 0.0017596879, "MEAN_MOTION_DOT": 3.065e-05, "MEAN_MOTION_DDOT": 0}, "tle": {"line1": "1 30322U 99025AAK 25336.09729752  .00003065  00000+0  17597-2 0  9999", "line2": "2 30322  98.3991 194.5496 0127386 283.5054  75.1949 14.06015507960507"}}, "geometry": {"type": "Point", "coordinates": [-171.42464111500183, 38.054920854292625]}}, {"type": "Feature", "properties": {"norad_id": 30325, "name": "FENGYUN 1C DEB", "group": "fengyun-1c-debris", "lat": -40.937601309245885, "lon": 4.1353702292686485, "alt_km": 859.9489301113472, "timestamp": "2025-12-02T19:35:50.831386+00:00", "meta": {"OBJECT_NAME": "FENGYUN 1C DEB", "OBJECT_ID": "1999-025AAL", "EPOCH": "2025-12-01T19:56:07.746144", "MEAN_MOTION": 14.09098386, "ECCENTRICITY": 0.0015204, "INCLINATION": 98.7339, "RA_OF_ASC_NODE": 355.5174, "ARG_OF_PERICENTER": 286.1916, "MEAN_ANOMALY": 73.7581, "EPHEMERIS_TYPE": 0, "CLASSIFICATION_TYPE": "U", "NORAD_CAT_ID": 30325, "ELEMENT_SET_NO": 999, "REV_AT_EPOCH": 96862, "BSTAR": 0.0001269338, "MEAN_MOTION_DOT": 1.78e-06, "MEAN_MOTION_DDOT": 0}, "tle": {"line1": "1 30325U 99025AAL 25335.83064521  .00000178  00000+0  12693-3 0  9994", "line2": "2 30325  98.7339 355.5174 0015204 286.1916  73.7581 14.09098386968629"}}, "geometry": {"type": "Point", "coordinates": [4.1353702292686485, -40.937601309245885]}}, {"type": "Feature", "properties": {"norad_id": 30326, "name": "FENGYUN 1C DEB", "group": "fengyun-1c-debris", "lat": 4.751077087317816, "lon": -135.8367763482817, "alt_km": 882.3194673345542, "timestamp": "2025-12-02T19:35:50.831396+00:00", "meta": {"OBJECT_NAME": "FENGYUN 1C DEB", "OBJECT_ID": "1999-025AAM", "EPOCH": "2025-12-02T10:54:31.335840", "MEAN_MOTION": 13.85467451, "ECCENTRICITY": 0.0142624, "INCLINATION": 98.6543, "RA_OF_ASC_NODE": 224.5541, "ARG_OF_PERICENTER": 58.4448, "MEAN_ANOMALY": 303.0547, "EPHEMERIS_TYPE": 0, "CLASSIFICATION_TYPE": "U", "NORAD_CAT_ID": 30326, "ELEMENT_SET_NO": 999, "REV_AT_EPOCH": 95313, "BSTAR": 0.0002415, "MEAN_MOTION_DOT": 2.59e-06, "MEAN_MOTION_DDOT": 0}, "tle": {"line1": "1 30326U 99025AAM 25336.45452935  .00000259  00000+0  24150-3 0  9995", "line2": "2 30326  98.6543 224.5541 0142624  58.4448 303.0547 13.85467451953133"}}, "geometry": {"type": "Point", "coordinates": [-135.8367763482817, 4.751077087317816]}}, {"type": "Feature", "properties": {"norad_id": 30327, "name": "FENGYUN 1C DEB", "group": "fengyun-1c-debris", "lat": 20.2876447585341, "lon": 54.75492218642654, "alt_km": 750.4884935368173, "timestamp": "2025-12-02T19:35:50.831430+00:00", "meta": {"OBJECT_NAME": "FENGYUN 1C DEB", "OBJECT_ID": "1999-025AAN", "EPOCH": "2025-12-02T12:39:45.154080", "MEAN_MOTION": 14.17871426, "ECCENTRICITY": 0.0116475, "INCLINATION": 98.4441, "RA_OF_ASC_NODE": 231.3322, "ARG_OF_PERICENTER": 172.8137, "MEAN_ANOMALY": 312.7608, "EPHEMERIS_TYPE": 0, "CLASSIFICATION_TYPE": "U", "NORAD_CAT_ID": 30327, "ELEMENT_SET_NO": 999, "REV_AT_EPOCH": 96298, "BSTAR": 0.0021839, "MEAN_MOTION_DOT": 4.732e-05, "MEAN_MOTION_DDOT": 0}, "tle": {"line1": "1 30327U 99025AAN 25336.52760595  .00004732  00000+0  21839-2 0  9998", "line2": "2 30327  98.4441 231.3322 0116475 172.8137 312.7608 14.17871426962988"}}, "geometry": {"type": "Point", "coordinates": [54.75492218642654, 20.2876447585341]}}, {"type": "Feature", "properties": {"norad_id": 30328, "name": "FENGYUN 1C DEB", "group": "fengyun-1c-debris", "lat": 29.86067725485022, "lon": 172.27612354374645, "alt_km": 846.0876722227185, "timestamp": "2025-12-02T19:35:50.831441+00:00", "meta": {"OBJECT_NAME": "FENGYUN 1C DEB", "OBJECT_ID": "1999-025AAP", "EPOCH": "2025-12-02T12:48:22.690080", "MEAN_MOTION": 14.12465439, "ECCENTRICITY": 0.0005238, "INCLINATION": 98.6868, "RA_OF_ASC_NODE": 346.9664, "ARG_OF_PERICENTER": 180.3157, "MEAN_ANOMALY": 331.3401, "EPHEMERIS_TYPE": 0, "CLASSIFICATION_TYPE": "U", "NORAD_CAT_ID": 30328, "ELEMENT_SET_NO": 999, "REV_AT_EPOCH": 97120, "BSTAR": 0.00016856, "MEAN_MOTION_DOT": 2.69e-06, "MEAN_MOTION_DDOT": 0}, "tle": {"line1": "1 30328U 99025AAP 25336.53359595  .00000269  00000+0  16856-3 0  9999", "line2": "2 30328  98.6868 346.9664 0005238 180.3157 331.3401 14.12465439971207"}}, "geometry": {"type": "Point", "coordinates": [172.27612354374645, 29.86067725485022]}}, {"type": "Feature", "properties": {"norad_id": 30329, "name": "FENGYUN 1C DEB", "group": "fengyun-1c-debris", "lat": 39.03866432919968, "lon": -111.31666833493156, "alt_km": 840.425740392101, "timestamp": "2025-12-02T19:35:50.831452+00:00", "meta": {"OBJECT_NAME": "FENGYUN 1C DEB", "OBJECT_ID": "1999-025AAQ", "EPOCH": "2025-12-02T06:16:16.109184", "MEAN_MOTION": 13.86723196, "ECCENTRICITY": 0.0142349, "INCLINATION": 99.2613, "RA_OF_ASC_NODE": 255.7367, "ARG_OF_PERICENTER": 63.4636, "MEAN_ANOMALY": 86.3894, "EPHEMERIS_TYPE": 0, "CLASSIFICATION_TYPE": "U", "NORAD_CAT_ID": 30329, "ELEMENT_SET_NO": 999, "REV_AT_EPOCH": 95265, "BSTAR": 0.00056181, "MEAN_MOTION_DOT": 6.65e-06, "MEAN_MOTION_DDOT": 0}, "tle": {"line1": "1 30329U 99025AAQ 25336.26129756  .00000665  00000+0  56181-3 0  9999", "line2": "2 30329  99.2613 255.7367 0142349  63.4636  86.3894 13.86723196952656"}}, "geometry": {"type": "Point", "coordinates": [-111.31666833493156, 39.03866432919968]}}, {"type": "Feature", "properties": {"norad_id": 30330, "name": "FENGYUN 1C DEB", "group": "fengyun-1c-debris", "lat": -63.08929485514089, "lon": 131.78522846051413, "alt_km": 847.5776974873525, "timestamp": "2025-12-02T19:35:50.831462+00:00", "meta": {"OBJECT_NAME": "FENGYUN 1C DEB", "OBJECT_ID": "1999-025AAR", "EPOCH": "2025-12-02T12:04:50.666016", "MEAN_MOTION": 13.82012685, "ECCENTRICITY": 0.0187549, "INCLINATION": 98.8858, "RA_OF_ASC_NODE": 329.4415, "ARG_OF_PERICENTER": 212.4243, "MEAN_ANOMALY": 273.4784, "EPHEMERIS_TYPE": 0, "CLASSIFICATION_TYPE": "U", "NORAD_CAT_ID": 30330, "ELEMENT_SET_NO": 999, "REV_AT_EPOCH": 94516, "BSTAR": 0.0015533, "MEAN_MOTION_DOT": 1.867e-05, "MEAN_MOTION_DDOT": 0}, "tle": {"line1": "1 30330U 99025AAR 25336.50336419  .00001867  00000+0  15533-2 0  9994", "line2": "2 30330  98.8858 329.4415 0187549 212.4243 273.4784 13.82012685945163"}}, "geometry": {"type": "Point", "coordinates": [131.78522846051413, -63.08929485514089]}}]}